STARLINK-2022           
1 47643U 21012Z   24285.16577294  .00309055  00000+0  19771-1 0  9999
2 47643  53.0525 201.4054 0001425  80.7901 279.3249 15.06594093202191
